{
    "week": 289,
    "satellites": [
        {
            "Name": "GSAT0208 (GALILEO 11)",
            "Line1": "1 41175U 15079B   24293.31795538  .00000048  00000+0  00000+0 0  9991",
            "Line2": "2 41175  55.4801 117.9001 0001805  12.6669 347.3863  1.70474016 54863",
            "SatelliteNumber": "41175",
            "Classification": "U",
            "LaunchYear": "15",
            "LaunchNumber": "079",
            "PieceOfLaunch": "B",
            "EpochYear": "24",
            "EpochDay": 293.31795538,
            "FirstDerivativeMeanMotion": 4.8e-07,
            "SecondDerivativeMeanMotion": "00000+0",
            "BSTAR": "00000+0",
            "SetNumber": "999",
            "Inclination": 55.4801,
            "RAAN": 117.9001,
            "Eccentricity": 0.0001805,
            "ArgumentOfPerigee": 12.6669,
            "MeanAnomaly": 347.3863,
            "MeanMotion": 1.70474016,
            "RevolutionNumber": "5486"
        },
        {
            "Name": "GSAT0211 (GALILEO 14)",
            "Line1": "1 41549U 16030A   24292.26747501 -.00000008  00000+0  00000+0 0  9991",
            "Line2": "2 41549  55.3142 238.3896 0003544 334.2332  25.7170  1.70472936 52301",
            "SatelliteNumber": "41549",
            "Classification": "U",
            "LaunchYear": "16",
            "LaunchNumber": "030",
            "PieceOfLaunch": "A",
            "EpochYear": "24",
            "EpochDay": 292.26747501,
            "FirstDerivativeMeanMotion": -8e-08,
            "SecondDerivativeMeanMotion": "00000+0",
            "BSTAR": "00000+0",
            "SetNumber": "999",
            "Inclination": 55.3142,
            "RAAN": 238.3896,
            "Eccentricity": 0.0003544,
            "ArgumentOfPerigee": 334.2332,
            "MeanAnomaly": 25.717,
            "MeanMotion": 1.70472936,
            "RevolutionNumber": "5230"
        },
        {
            "Name": "GSAT0210 (GALILEO 13)",
            "Line1": "1 41550U 16030B   24294.28533202 -.00000007  00000+0  00000+0 0  9997",
            "Line2": "2 41550  55.3125 238.3326 0002869 247.4657 112.4836  1.70473376 52353",
            "SatelliteNumber": "41550",
            "Classification": "U",
            "LaunchYear": "16",
            "LaunchNumber": "030",
            "PieceOfLaunch": "B",
            "EpochYear": "24",
            "EpochDay": 294.28533202,
            "FirstDerivativeMeanMotion": -7e-08,
            "SecondDerivativeMeanMotion": "00000+0",
            "BSTAR": "00000+0",
            "SetNumber": "999",
            "Inclination": 55.3125,
            "RAAN": 238.3326,
            "Eccentricity": 0.0002869,
            "ArgumentOfPerigee": 247.4657,
            "MeanAnomaly": 112.4836,
            "MeanMotion": 1.70473376,
            "RevolutionNumber": "5235"
        },
        {
            "Name": "GSAT0207 (GALILEO 15)",
            "Line1": "1 41859U 16069A   24293.97823475  .00000043  00000+0  00000+0 0  9999",
            "Line2": "2 41859  55.1480 117.8554 0001796 326.5924  33.4401  1.70474112 49080",
            "SatelliteNumber": "41859",
            "Classification": "U",
            "LaunchYear": "16",
            "LaunchNumber": "069",
            "PieceOfLaunch": "A",
            "EpochYear": "24",
            "EpochDay": 293.97823475,
            "FirstDerivativeMeanMotion": 4.3e-07,
            "SecondDerivativeMeanMotion": "00000+0",
            "BSTAR": "00000+0",
            "SetNumber": "999",
            "Inclination": 55.148,
            "RAAN": 117.8554,
            "Eccentricity": 0.0001796,
            "ArgumentOfPerigee": 326.5924,
            "MeanAnomaly": 33.4401,
            "MeanMotion": 1.70474112,
            "RevolutionNumber": "4908"
        },
        {
            "Name": "GSAT0212 (GALILEO 16)",
            "Line1": "1 41860U 16069B   24292.07267347  .00000058  00000+0  00000+0 0  9997",
            "Line2": "2 41860  55.1447 117.9044 0002232  35.2044 324.8699  1.70474275 49304",
            "SatelliteNumber": "41860",
            "Classification": "U",
            "LaunchYear": "16",
            "LaunchNumber": "069",
            "PieceOfLaunch": "B",
            "EpochYear": "24",
            "EpochDay": 292.07267347,
            "FirstDerivativeMeanMotion": 5.8e-07,
            "SecondDerivativeMeanMotion": "00000+0",
            "BSTAR": "00000+0",
            "SetNumber": "999",
            "Inclination": 55.1447,
            "RAAN": 117.9044,
            "Eccentricity": 0.0002232,
            "ArgumentOfPerigee": 35.2044,
            "MeanAnomaly": 324.8699,
            "MeanMotion": 1.70474275,
            "RevolutionNumber": "4930"
        },
        {
            "Name": "GSAT0213 (GALILEO 17)",
            "Line1": "1 41861U 16069C   24294.20074967  .00000041  00000+0  00000+0 0  9991",
            "Line2": "2 41861  55.1481 117.8523 0001644 274.5512  85.4724  1.70474626 49206",
            "SatelliteNumber": "41861",
            "Classification": "U",
            "LaunchYear": "16",
            "LaunchNumber": "069",
            "PieceOfLaunch": "C",
            "EpochYear": "24",
            "EpochDay": 294.20074967,
            "FirstDerivativeMeanMotion": 4.1e-07,
            "SecondDerivativeMeanMotion": "00000+0",
            "BSTAR": "00000+0",
            "SetNumber": "999",
            "Inclination": 55.1481,
            "RAAN": 117.8523,
            "Eccentricity": 0.0001644,
            "ArgumentOfPerigee": 274.5512,
            "MeanAnomaly": 85.4724,
            "MeanMotion": 1.70474626,
            "RevolutionNumber": "4920"
        },
        {
            "Name": "GSAT0214 (GALILEO 18)",
            "Line1": "1 41862U 16069D   24293.75954498  .00000044  00000+0  00000+0 0  9990",
            "Line2": "2 41862  55.1464 117.8579 0000736 283.8988  76.1384  1.70474364 49321",
            "SatelliteNumber": "41862",
            "Classification": "U",
            "LaunchYear": "16",
            "LaunchNumber": "069",
            "PieceOfLaunch": "D",
            "EpochYear": "24",
            "EpochDay": 293.75954498,
            "FirstDerivativeMeanMotion": 4.4e-07,
            "SecondDerivativeMeanMotion": "00000+0",
            "BSTAR": "00000+0",
            "SetNumber": "999",
            "Inclination": 55.1464,
            "RAAN": 117.8579,
            "Eccentricity": 7.36e-05,
            "ArgumentOfPerigee": 283.8988,
            "MeanAnomaly": 76.1384,
            "MeanMotion": 1.70474364,
            "RevolutionNumber": "4932"
        },
        {
            "Name": "GSAT0215 (GALILEO 19)",
            "Line1": "1 43055U 17079A   24294.24893720 -.00000006  00000+0  00000+0 0  9992",
            "Line2": "2 43055  55.2904 238.1554 0002493 283.8146  76.1374  1.70473661 42674",
            "SatelliteNumber": "43055",
            "Classification": "U",
            "LaunchYear": "17",
            "LaunchNumber": "079",
            "PieceOfLaunch": "A",
            "EpochYear": "24",
            "EpochDay": 294.2489372,
            "FirstDerivativeMeanMotion": -6e-08,
            "SecondDerivativeMeanMotion": "00000+0",
            "BSTAR": "00000+0",
            "SetNumber": "999",
            "Inclination": 55.2904,
            "RAAN": 238.1554,
            "Eccentricity": 0.0002493,
            "ArgumentOfPerigee": 283.8146,
            "MeanAnomaly": 76.1374,
            "MeanMotion": 1.70473661,
            "RevolutionNumber": "4267"
        },
        {
            "Name": "GSAT0216 (GALILEO 20)",
            "Line1": "1 43056U 17079B   24294.54054353 -.00000007  00000+0  00000+0 0  9998",
            "Line2": "2 43056  55.2907 238.1473 0004002 287.9141  72.0235  1.70473816 42668",
            "SatelliteNumber": "43056",
            "Classification": "U",
            "LaunchYear": "17",
            "LaunchNumber": "079",
            "PieceOfLaunch": "B",
            "EpochYear": "24",
            "EpochDay": 294.54054353,
            "FirstDerivativeMeanMotion": -7e-08,
            "SecondDerivativeMeanMotion": "00000+0",
            "BSTAR": "00000+0",
            "SetNumber": "999",
            "Inclination": 55.2907,
            "RAAN": 238.1473,
            "Eccentricity": 0.0004002,
            "ArgumentOfPerigee": 287.9141,
            "MeanAnomaly": 72.0235,
            "MeanMotion": 1.70473816,
            "RevolutionNumber": "4266"
        },
        {
            "Name": "GSAT0217 (GALILEO 21)",
            "Line1": "1 43057U 17079C   24294.17447560 -.00000006  00000+0  00000+0 0  9993",
            "Line2": "2 43057  55.2887 238.1559 0003594 304.8521  55.0934  1.70473753 42675",
            "SatelliteNumber": "43057",
            "Classification": "U",
            "LaunchYear": "17",
            "LaunchNumber": "079",
            "PieceOfLaunch": "C",
            "EpochYear": "24",
            "EpochDay": 294.1744756,
            "FirstDerivativeMeanMotion": -6e-08,
            "SecondDerivativeMeanMotion": "00000+0",
            "BSTAR": "00000+0",
            "SetNumber": "999",
            "Inclination": 55.2887,
            "RAAN": 238.1559,
            "Eccentricity": 0.0003594,
            "ArgumentOfPerigee": 304.8521,
            "MeanAnomaly": 55.0934,
            "MeanMotion": 1.70473753,
            "RevolutionNumber": "4267"
        }
    ]
}